{
"type": "FeatureCollection",
"name": "Ottawa_Public_Library_Locations_2024",
"crs": { "type": "name", "properties": { "name": "urn:ogc:def:crs:OGC:1.3:CRS84" } },
"features": [
{ "type": "Feature", "properties": { "X": -8422552.565, "Y": 5681256.453, "Name": "Alta Vista", "Acronym": "AL", "Street_Address": "2516 Alta Vista", "City": "Ottawa", "Province": "ON", "Postal_Code": "K1V 7T1", "F_LATITUDE": 45.378183, "F_LONGITUDE": -75.661077, "F_Canada_Code": 1, "F_Canada_Name": "Canada", "F_Province_Code": "35", "F_Province_Name": "Ontario", "F_Census_Division_Code": "3506", "F_Census_Division_Name": "Ottawa, ON (CDR)", "F_Census_Subdivision_Code": "3506008", "F_Census_Subdivision_Name": "Ottawa, ON (CV)", "F_Federal_Electoral_District__2": "35077", "F_Federal_Electoral_District__3": "Ottawa South, ON", "F_Dissemination_Area_Code": "35061701", "F_Dissemination_Area_Name": "35061701, ON", "F_Aggregate_Dissemination_Area_": "35060044", "F_Aggregate_Dissemination_Area1": "35060044, ON", "F_Census_Metropolitan_Area_Code": "505", "F_Census_Metropolitan_Area_Name": "Ottawa - Gatineau, ON/QC", "F_Census_Tract_Code": "5050005", "F_Census_Tract_Name": "Ottawa - Gatineau (0005.00), ON", "F_Forward_Sortation_Area__Q4__2": "K1V", "F_Forward_Sortation_Area__Q4__3": "K1V (Ottawa, ON)", "F_Precision": "Street", "ObjectId": null, "ObjectId2": 1 }, "geometry": { "type": "Point", "coordinates": [ -75.661077, 45.378183 ] } },
{ "type": "Feature", "properties": { "X": -8448679.583000001, "Y": 5672011.277, "Name": "Beaverbrook", "Acronym": "BE", "Street_Address": "2500 Campeau", "City": "Ottawa", "Province": "ON", "Postal_Code": "K2K 2W3", "F_LATITUDE": 45.319816, "F_LONGITUDE": -75.89578, "F_Canada_Code": 1, "F_Canada_Name": "Canada", "F_Province_Code": "35", "F_Province_Name": "Ontario", "F_Census_Division_Code": "3506", "F_Census_Division_Name": "Ottawa, ON (CDR)", "F_Census_Subdivision_Code": "3506008", "F_Census_Subdivision_Name": "Ottawa, ON (CV)", "F_Federal_Electoral_District__2": "35041", "F_Federal_Electoral_District__3": "Kanata--Carleton, ON", "F_Dissemination_Area_Code": "35060739", "F_Dissemination_Area_Name": "35060739, ON", "F_Aggregate_Dissemination_Area_": "35060084", "F_Aggregate_Dissemination_Area1": "35060084, ON", "F_Census_Metropolitan_Area_Code": "505", "F_Census_Metropolitan_Area_Name": "Ottawa - Gatineau, ON/QC", "F_Census_Tract_Code": "5050160.02", "F_Census_Tract_Name": "Ottawa - Gatineau (0160.02), ON", "F_Forward_Sortation_Area__Q4__2": "K2K", "F_Forward_Sortation_Area__Q4__3": "K2K (Ottawa, ON)", "F_Precision": "Street", "ObjectId": null, "ObjectId2": 2 }, "geometry": { "type": "Point", "coordinates": [ -75.89578, 45.319816 ] } },
{ "type": "Feature", "properties": { "X": -8411754.351, "Y": 5689611.242, "Name": "Blackburn Hamlet", "Acronym": "BH", "Street_Address": "199 Glen Park", "City": "Ottawa", "Province": "ON", "Postal_Code": "K1B 5B8", "F_LATITUDE": 45.430877, "F_LONGITUDE": -75.564075, "F_Canada_Code": 1, "F_Canada_Name": "Canada", "F_Province_Code": "35", "F_Province_Name": "Ontario", "F_Census_Division_Code": "3506", "F_Census_Division_Name": "Ottawa, ON (CDR)", "F_Census_Subdivision_Code": "3506008", "F_Census_Subdivision_Name": "Ottawa, ON (CV)", "F_Federal_Electoral_District__2": "35076", "F_Federal_Electoral_District__3": "Orléans, ON", "F_Dissemination_Area_Code": "35061235", "F_Dissemination_Area_Name": "35061235, ON", "F_Aggregate_Dissemination_Area_": "35060019", "F_Aggregate_Dissemination_Area1": "35060019, ON", "F_Census_Metropolitan_Area_Code": "505", "F_Census_Metropolitan_Area_Name": "Ottawa - Gatineau, ON/QC", "F_Census_Tract_Code": "5050125.02", "F_Census_Tract_Name": "Ottawa - Gatineau (0125.02), ON", "F_Forward_Sortation_Area__Q4__2": "K1B", "F_Forward_Sortation_Area__Q4__3": "K1B (Ottawa, ON)", "F_Precision": "Street", "ObjectId": null, "ObjectId2": 3 }, "geometry": { "type": "Point", "coordinates": [ -75.564075, 45.430877 ] } },
{ "type": "Feature", "properties": { "X": -8434926.171, "Y": 5680423.368, "Name": "Carlingwood", "Acronym": "CA", "Street_Address": "281 Woodroffe", "City": "Ottawa", "Province": "ON", "Postal_Code": "K2A 3W4", "F_LATITUDE": 45.372926, "F_LONGITUDE": -75.772231, "F_Canada_Code": 1, "F_Canada_Name": "Canada", "F_Province_Code": "35", "F_Province_Name": "Ontario", "F_Census_Division_Code": "3506", "F_Census_Division_Name": "Ottawa, ON (CDR)", "F_Census_Subdivision_Code": "3506008", "F_Census_Subdivision_Name": "Ottawa, ON (CV)", "F_Federal_Electoral_District__2": "35079", "F_Federal_Electoral_District__3": "Ottawa West--Nepean, ON", "F_Dissemination_Area_Code": "35061279", "F_Dissemination_Area_Name": "35061279, ON", "F_Aggregate_Dissemination_Area_": "35060142", "F_Aggregate_Dissemination_Area1": "35060142, ON", "F_Census_Metropolitan_Area_Code": "505", "F_Census_Metropolitan_Area_Name": "Ottawa - Gatineau, ON/QC", "F_Census_Tract_Code": "5050032.01", "F_Census_Tract_Name": "Ottawa - Gatineau (0032.01), ON", "F_Forward_Sortation_Area__Q4__2": "K2A", "F_Forward_Sortation_Area__Q4__3": "K2A (Ottawa, ON)", "F_Precision": "Street", "ObjectId": null, "ObjectId2": 4 }, "geometry": { "type": "Point", "coordinates": [ -75.772231, 45.372926 ] } },
{ "type": "Feature", "properties": { "X": -8465005.699, "Y": 5676604.241, "Name": "Carp", "Acronym": "CP", "Street_Address": "3911 Carp", "City": "Ottawa", "Province": "ON", "Postal_Code": "K0A 1L0", "F_LATITUDE": 45.34882, "F_LONGITUDE": -76.04244, "F_Canada_Code": 1, "F_Canada_Name": "Canada", "F_Province_Code": "35", "F_Province_Name": "Ontario", "F_Census_Division_Code": "3506", "F_Census_Division_Name": "Ottawa, ON (CDR)", "F_Census_Subdivision_Code": "3506008", "F_Census_Subdivision_Name": "Ottawa, ON (CV)", "F_Federal_Electoral_District__2": "35041", "F_Federal_Electoral_District__3": "Kanata--Carleton, ON", "F_Dissemination_Area_Code": "35061381", "F_Dissemination_Area_Name": "35061381, ON", "F_Aggregate_Dissemination_Area_": "35060128", "F_Aggregate_Dissemination_Area1": "35060128, ON", "F_Census_Metropolitan_Area_Code": "505", "F_Census_Metropolitan_Area_Name": "Ottawa - Gatineau, ON/QC", "F_Census_Tract_Code": "5050300", "F_Census_Tract_Name": "Ottawa - Gatineau (0300.00), ON", "F_Forward_Sortation_Area__Q4__2": "K0A", "F_Forward_Sortation_Area__Q4__3": "K0A (Almonte, ON)", "F_Precision": "Unique ePCCF", "ObjectId": null, "ObjectId2": 5 }, "geometry": { "type": "Point", "coordinates": [ -76.04244, 45.34882 ] } },
{ "type": "Feature", "properties": { "X": -8440928.073000001, "Y": 5672213.607, "Name": "Centennial", "Acronym": "CE", "Street_Address": "3870 Richmond Rd", "City": "Ottawa", "Province": "ON", "Postal_Code": "K2H 5C4", "F_LATITUDE": 45.321094, "F_LONGITUDE": -75.826147, "F_Canada_Code": 1, "F_Canada_Name": "Canada", "F_Province_Code": "35", "F_Province_Name": "Ontario", "F_Census_Division_Code": "3506", "F_Census_Division_Name": "Ottawa, ON (CDR)", "F_Census_Subdivision_Code": "3506008", "F_Census_Subdivision_Name": "Ottawa, ON (CV)", "F_Federal_Electoral_District__2": "35064", "F_Federal_Electoral_District__3": "Nepean, ON", "F_Dissemination_Area_Code": "35060607", "F_Dissemination_Area_Name": "35060607, ON", "F_Aggregate_Dissemination_Area_": "35060083", "F_Aggregate_Dissemination_Area1": "35060083, ON", "F_Census_Metropolitan_Area_Code": "505", "F_Census_Metropolitan_Area_Name": "Ottawa - Gatineau, ON/QC", "F_Census_Tract_Code": "5050136.01", "F_Census_Tract_Name": "Ottawa - Gatineau (0136.01), ON", "F_Forward_Sortation_Area__Q4__2": "K2H", "F_Forward_Sortation_Area__Q4__3": "K2H (Ottawa, ON)", "F_Precision": "Street", "ObjectId": null, "ObjectId2": 6 }, "geometry": { "type": "Point", "coordinates": [ -75.826147, 45.321094 ] } },
{ "type": "Feature", "properties": { "X": -8470598.613, "Y": 5700448.053, "Name": "Constance Bay", "Acronym": "CB", "Street_Address": "262 Len Purcell", "City": "Ottawa", "Province": "ON", "Postal_Code": "K0A 3M0", "F_LATITUDE": 45.499152, "F_LONGITUDE": -76.092682, "F_Canada_Code": 1, "F_Canada_Name": "Canada", "F_Province_Code": "35", "F_Province_Name": "Ontario", "F_Census_Division_Code": "3506", "F_Census_Division_Name": "Ottawa, ON (CDR)", "F_Census_Subdivision_Code": "3506008", "F_Census_Subdivision_Name": "Ottawa, ON (CV)", "F_Federal_Electoral_District__2": "35041", "F_Federal_Electoral_District__3": "Kanata--Carleton, ON", "F_Dissemination_Area_Code": "35061371", "F_Dissemination_Area_Name": "35061371, ON", "F_Aggregate_Dissemination_Area_": "35060028", "F_Aggregate_Dissemination_Area1": "35060028, ON", "F_Census_Metropolitan_Area_Code": "505", "F_Census_Metropolitan_Area_Name": "Ottawa - Gatineau, ON/QC", "F_Census_Tract_Code": "5050302", "F_Census_Tract_Name": "Ottawa - Gatineau (0302.00), ON", "F_Forward_Sortation_Area__Q4__2": "K0A", "F_Forward_Sortation_Area__Q4__3": "K0A (Almonte, ON)", "F_Precision": "Unique ePCCF", "ObjectId": null, "ObjectId2": 7 }, "geometry": { "type": "Point", "coordinates": [ -76.092682, 45.499152 ] } },
{ "type": "Feature", "properties": { "X": -8403885.399, "Y": 5695900.311, "Name": "Cumberland", "Acronym": "CU", "Street_Address": "1599 Tenth Line", "City": "Ottawa", "Province": "ON", "Postal_Code": "K1E 3E8", "F_LATITUDE": 45.47051, "F_LONGITUDE": -75.493387, "F_Canada_Code": 1, "F_Canada_Name": "Canada", "F_Province_Code": "35", "F_Province_Name": "Ontario", "F_Census_Division_Code": "3506", "F_Census_Division_Name": "Ottawa, ON (CDR)", "F_Census_Subdivision_Code": "3506008", "F_Census_Subdivision_Name": "Ottawa, ON (CV)", "F_Federal_Electoral_District__2": "35076", "F_Federal_Electoral_District__3": "Orléans, ON", "F_Dissemination_Area_Code": "35060014", "F_Dissemination_Area_Name": "35060014, ON", "F_Aggregate_Dissemination_Area_": "35060008", "F_Aggregate_Dissemination_Area1": "35060008, ON", "F_Census_Metropolitan_Area_Code": "505", "F_Census_Metropolitan_Area_Name": "Ottawa - Gatineau, ON/QC", "F_Census_Tract_Code": "5050170.09", "F_Census_Tract_Name": "Ottawa - Gatineau (0170.09), ON", "F_Forward_Sortation_Area__Q4__2": "K4A", "F_Forward_Sortation_Area__Q4__3": "K4A (Ottawa, ON)", "F_Precision": "Street", "ObjectId": null, "ObjectId2": 8 }, "geometry": { "type": "Point", "coordinates": [ -75.493387, 45.47051 ] } },
{ "type": "Feature", "properties": { "X": -8418321.867000001, "Y": 5684548.826, "Name": "Elmvale Acres", "Acronym": "EA", "Street_Address": "1910 St-Laurent", "City": "Ottawa", "Province": "ON", "Postal_Code": "K1G 1A4", "F_LATITUDE": 45.398954, "F_LONGITUDE": -75.623072, "F_Canada_Code": 1, "F_Canada_Name": "Canada", "F_Province_Code": "35", "F_Province_Name": "Ontario", "F_Census_Division_Code": "3506", "F_Census_Division_Name": "Ottawa, ON (CDR)", "F_Census_Subdivision_Code": "3506008", "F_Census_Subdivision_Name": "Ottawa, ON (CV)", "F_Federal_Electoral_District__2": "35077", "F_Federal_Electoral_District__3": "Ottawa South, ON", "F_Dissemination_Area_Code": "35060918", "F_Dissemination_Area_Name": "35060918, ON", "F_Aggregate_Dissemination_Area_": "35060152", "F_Aggregate_Dissemination_Area1": "35060152, ON", "F_Census_Metropolitan_Area_Code": "505", "F_Census_Metropolitan_Area_Name": "Ottawa - Gatineau, ON/QC", "F_Census_Tract_Code": "5050009", "F_Census_Tract_Name": "Ottawa - Gatineau (0009.00), ON", "F_Forward_Sortation_Area__Q4__2": "K1G", "F_Forward_Sortation_Area__Q4__3": "K1G (Ottawa, ON)", "F_Precision": "Street", "ObjectId": null, "ObjectId2": 9 }, "geometry": { "type": "Point", "coordinates": [ -75.623072, 45.398954 ] } },
{ "type": "Feature", "properties": { "X": -8430856.331, "Y": 5677546.91, "Name": "Emerald Plaza", "Acronym": "EP", "Street_Address": "1547 Merivale", "City": "Ottawa", "Province": "ON", "Postal_Code": "K2G 4V3", "F_LATITUDE": 45.354771, "F_LONGITUDE": -75.735671, "F_Canada_Code": 1, "F_Canada_Name": "Canada", "F_Province_Code": "35", "F_Province_Name": "Ontario", "F_Census_Division_Code": "3506", "F_Census_Division_Name": "Ottawa, ON (CDR)", "F_Census_Subdivision_Code": "3506008", "F_Census_Subdivision_Name": "Ottawa, ON (CV)", "F_Federal_Electoral_District__2": "35079", "F_Federal_Electoral_District__3": "Ottawa West--Nepean, ON", "F_Dissemination_Area_Code": "35061104", "F_Dissemination_Area_Name": "35061104, ON", "F_Aggregate_Dissemination_Area_": "35060063", "F_Aggregate_Dissemination_Area1": "35060063, ON", "F_Census_Metropolitan_Area_Code": "505", "F_Census_Metropolitan_Area_Name": "Ottawa - Gatineau, ON/QC", "F_Census_Tract_Code": "5050132", "F_Census_Tract_Name": "Ottawa - Gatineau (0132.00), ON", "F_Forward_Sortation_Area__Q4__2": "K2E", "F_Forward_Sortation_Area__Q4__3": "K2E (Ottawa, ON)", "F_Precision": "Street", "ObjectId": null, "ObjectId2": 10 }, "geometry": { "type": "Point", "coordinates": [ -75.735671, 45.354771 ] } },
{ "type": "Feature", "properties": { "X": -8484294.028000001, "Y": 5696193.982, "Name": "Fitzroy Harbour", "Acronym": "FH", "Street_Address": "100 Clifford Campbell", "City": "Ottawa", "Province": "ON", "Postal_Code": "K0A 1X0", "F_LATITUDE": 45.47236, "F_LONGITUDE": -76.21571, "F_Canada_Code": 1, "F_Canada_Name": "Canada", "F_Province_Code": "35", "F_Province_Name": "Ontario", "F_Census_Division_Code": "3506", "F_Census_Division_Name": "Ottawa, ON (CDR)", "F_Census_Subdivision_Code": "3506008", "F_Census_Subdivision_Name": "Ottawa, ON (CV)", "F_Federal_Electoral_District__2": "35041", "F_Federal_Electoral_District__3": "Kanata--Carleton, ON", "F_Dissemination_Area_Code": "35061160", "F_Dissemination_Area_Name": "35061160, ON", "F_Aggregate_Dissemination_Area_": "35060028", "F_Aggregate_Dissemination_Area1": "35060028, ON", "F_Census_Metropolitan_Area_Code": "505", "F_Census_Metropolitan_Area_Name": "Ottawa - Gatineau, ON/QC", "F_Census_Tract_Code": "5050301", "F_Census_Tract_Name": "Ottawa - Gatineau (0301.00), ON", "F_Forward_Sortation_Area__Q4__2": "K0A", "F_Forward_Sortation_Area__Q4__3": "K0A (Almonte, ON)", "F_Precision": "Unique ePCCF", "ObjectId": null, "ObjectId2": 11 }, "geometry": { "type": "Point", "coordinates": [ -76.21571, 45.47236 ] } },
{ "type": "Feature", "properties": { "X": -8410933.704, "Y": 5662902.459, "Name": "Greely", "Acronym": "GR", "Street_Address": "1448 Meadow Drive", "City": "Ottawa", "Province": "ON", "Postal_Code": "K4P 1B1", "F_LATITUDE": 45.262251, "F_LONGITUDE": -75.556703, "F_Canada_Code": 1, "F_Canada_Name": "Canada", "F_Province_Code": "35", "F_Province_Name": "Ontario", "F_Census_Division_Code": "3506", "F_Census_Division_Name": "Ottawa, ON (CDR)", "F_Census_Subdivision_Code": "3506008", "F_Census_Subdivision_Name": "Ottawa, ON (CV)", "F_Federal_Electoral_District__2": "35088", "F_Federal_Electoral_District__3": "Carleton, ON", "F_Dissemination_Area_Code": "35061448", "F_Dissemination_Area_Name": "35061448, ON", "F_Aggregate_Dissemination_Area_": "35060124", "F_Aggregate_Dissemination_Area1": "35060124, ON", "F_Census_Metropolitan_Area_Code": "505", "F_Census_Metropolitan_Area_Name": "Ottawa - Gatineau, ON/QC", "F_Census_Tract_Code": "5050190.02", "F_Census_Tract_Name": "Ottawa - Gatineau (0190.02), ON", "F_Forward_Sortation_Area__Q4__2": "K4P", "F_Forward_Sortation_Area__Q4__3": "K4P (Greely, ON)", "F_Precision": "Street", "ObjectId": null, "ObjectId2": 12 }, "geometry": { "type": "Point", "coordinates": [ -75.556703, 45.262251 ] } },
{ "type": "Feature", "properties": { "X": -8419613.507, "Y": 5678858.986, "Name": "Greenboro", "Acronym": "GB", "Street_Address": "363 Lorry Greenberg", "City": "Ottawa", "Province": "ON", "Postal_Code": "K1T 3P8", "F_LATITUDE": 45.363053, "F_LONGITUDE": -75.634675, "F_Canada_Code": 1, "F_Canada_Name": "Canada", "F_Province_Code": "35", "F_Province_Name": "Ontario", "F_Census_Division_Code": "3506", "F_Census_Division_Name": "Ottawa, ON (CDR)", "F_Census_Subdivision_Code": "3506008", "F_Census_Subdivision_Name": "Ottawa, ON (CV)", "F_Federal_Electoral_District__2": "35077", "F_Federal_Electoral_District__3": "Ottawa South, ON", "F_Dissemination_Area_Code": "35060865", "F_Dissemination_Area_Name": "35060865, ON", "F_Aggregate_Dissemination_Area_": "35060151", "F_Aggregate_Dissemination_Area1": "35060151, ON", "F_Census_Metropolitan_Area_Code": "505", "F_Census_Metropolitan_Area_Name": "Ottawa - Gatineau, ON/QC", "F_Census_Tract_Code": "5050001.06", "F_Census_Tract_Name": "Ottawa - Gatineau (0001.06), ON", "F_Forward_Sortation_Area__Q4__2": "K1T", "F_Forward_Sortation_Area__Q4__3": "K1T (Ottawa, ON)", "F_Precision": "Street", "ObjectId": null, "ObjectId2": 13 }, "geometry": { "type": "Point", "coordinates": [ -75.634675, 45.363053 ] } },
{ "type": "Feature", "properties": { "X": -8447647.095000001, "Y": 5668071.348, "Name": "Hazeldean", "Acronym": "HA", "Street_Address": "50 Castlefrank", "City": "Ottawa", "Province": "ON", "Postal_Code": "K2L 2N5", "F_LATITUDE": 45.294924, "F_LONGITUDE": -75.886505, "F_Canada_Code": 1, "F_Canada_Name": "Canada", "F_Province_Code": "35", "F_Province_Name": "Ontario", "F_Census_Division_Code": "3506", "F_Census_Division_Name": "Ottawa, ON (CDR)", "F_Census_Subdivision_Code": "3506008", "F_Census_Subdivision_Name": "Ottawa, ON (CV)", "F_Federal_Electoral_District__2": "35041", "F_Federal_Electoral_District__3": "Kanata--Carleton, ON", "F_Dissemination_Area_Code": "35060708", "F_Dissemination_Area_Name": "35060708, ON", "F_Aggregate_Dissemination_Area_": "35060096", "F_Aggregate_Dissemination_Area1": "35060096, ON", "F_Census_Metropolitan_Area_Code": "505", "F_Census_Metropolitan_Area_Name": "Ottawa - Gatineau, ON/QC", "F_Census_Tract_Code": "5050162.01", "F_Census_Tract_Name": "Ottawa - Gatineau (0162.01), ON", "F_Forward_Sortation_Area__Q4__2": "K2L", "F_Forward_Sortation_Area__Q4__3": "K2L (Ottawa, ON)", "F_Precision": "Street", "ObjectId": null, "ObjectId2": 14 }, "geometry": { "type": "Point", "coordinates": [ -75.886505, 45.294924 ] } },
{ "type": "Feature", "properties": { "X": -8426360.248, "Y": 5687943.752, "Name": "Main", "Acronym": "MA", "Street_Address": "120 Metcalfe", "City": "Ottawa", "Province": "ON", "Postal_Code": "K1P 5M2", "F_LATITUDE": 45.420364, "F_LONGITUDE": -75.695282, "F_Canada_Code": 1, "F_Canada_Name": "Canada", "F_Province_Code": "35", "F_Province_Name": "Ontario", "F_Census_Division_Code": "3506", "F_Census_Division_Name": "Ottawa, ON (CDR)", "F_Census_Subdivision_Code": "3506008", "F_Census_Subdivision_Name": "Ottawa, ON (CV)", "F_Federal_Electoral_District__2": "35075", "F_Federal_Electoral_District__3": "Ottawa Centre, ON", "F_Dissemination_Area_Code": "35060338", "F_Dissemination_Area_Name": "35060338, ON", "F_Aggregate_Dissemination_Area_": "35060032", "F_Aggregate_Dissemination_Area1": "35060032, ON", "F_Census_Metropolitan_Area_Code": "505", "F_Census_Metropolitan_Area_Name": "Ottawa - Gatineau, ON/QC", "F_Census_Tract_Code": "5050048", "F_Census_Tract_Name": "Ottawa - Gatineau (0048.00), ON", "F_Forward_Sortation_Area__Q4__2": "K1P", "F_Forward_Sortation_Area__Q4__3": "K1P (Ottawa, ON)", "F_Precision": "Street", "ObjectId": null, "ObjectId2": 15 }, "geometry": { "type": "Point", "coordinates": [ -75.695282, 45.420364 ] } },
{ "type": "Feature", "properties": { "X": -8424783.741, "Y": 5657515.573, "Name": "Manotick", "Acronym": "MK", "Street_Address": "5499 South River", "City": "Ottawa", "Province": "ON", "Postal_Code": "K4M 1J3", "F_LATITUDE": 45.22818, "F_LONGITUDE": -75.68112, "F_Canada_Code": 1, "F_Canada_Name": "Canada", "F_Province_Code": "35", "F_Province_Name": "Ontario", "F_Census_Division_Code": "3506", "F_Census_Division_Name": "Ottawa, ON (CDR)", "F_Census_Subdivision_Code": "3506008", "F_Census_Subdivision_Name": "Ottawa, ON (CV)", "F_Federal_Electoral_District__2": "35088", "F_Federal_Electoral_District__3": "Carleton, ON", "F_Dissemination_Area_Code": "35060834", "F_Dissemination_Area_Name": "35060834, ON", "F_Aggregate_Dissemination_Area_": "35060125", "F_Aggregate_Dissemination_Area1": "35060125, ON", "F_Census_Metropolitan_Area_Code": "505", "F_Census_Metropolitan_Area_Name": "Ottawa - Gatineau, ON/QC", "F_Census_Tract_Code": "5050201", "F_Census_Tract_Name": "Ottawa - Gatineau (0201.00), ON", "F_Forward_Sortation_Area__Q4__2": "K4M", "F_Forward_Sortation_Area__Q4__3": "K4M (Manotick, ON)", "F_Precision": "Unique ePCCF", "ObjectId": null, "ObjectId2": 16 }, "geometry": { "type": "Point", "coordinates": [ -75.68112, 45.22818 ] } },
{ "type": "Feature", "properties": { "X": -8401213.954, "Y": 5657699.083, "Name": "Metcalfe Village", "Acronym": "ME", "Street_Address": "2782 8th Line", "City": "Ottawa", "Province": "ON", "Postal_Code": "K0A 2P0", "F_LATITUDE": 45.229341, "F_LONGITUDE": -75.469389, "F_Canada_Code": 1, "F_Canada_Name": "Canada", "F_Province_Code": "35", "F_Province_Name": "Ontario", "F_Census_Division_Code": "3506", "F_Census_Division_Name": "Ottawa, ON (CDR)", "F_Census_Subdivision_Code": "3506008", "F_Census_Subdivision_Name": "Ottawa, ON (CV)", "F_Federal_Electoral_District__2": "35088", "F_Federal_Electoral_District__3": "Carleton, ON", "F_Dissemination_Area_Code": "35061460", "F_Dissemination_Area_Name": "35061460, ON", "F_Aggregate_Dissemination_Area_": "35060123", "F_Aggregate_Dissemination_Area1": "35060123, ON", "F_Census_Metropolitan_Area_Code": "505", "F_Census_Metropolitan_Area_Name": "Ottawa - Gatineau, ON/QC", "F_Census_Tract_Code": "5050190.01", "F_Census_Tract_Name": "Ottawa - Gatineau (0190.01), ON", "F_Forward_Sortation_Area__Q4__2": "K0A", "F_Forward_Sortation_Area__Q4__3": "K0A (Almonte, ON)", "F_Precision": "Street", "ObjectId": null, "ObjectId2": 17 }, "geometry": { "type": "Point", "coordinates": [ -75.469389, 45.229341 ] } },
{ "type": "Feature", "properties": { "X": -8453473.112, "Y": 5647560.289, "Name": "Munster", "Acronym": "MU", "Street_Address": "7749 Bleeks", "City": "Ottawa", "Province": "ON", "Postal_Code": "K0A 3P0", "F_LATITUDE": 45.165161, "F_LONGITUDE": -75.938841, "F_Canada_Code": 1, "F_Canada_Name": "Canada", "F_Province_Code": "35", "F_Province_Name": "Ontario", "F_Census_Division_Code": "3506", "F_Census_Division_Name": "Ottawa, ON (CDR)", "F_Census_Subdivision_Code": "3506008", "F_Census_Subdivision_Name": "Ottawa, ON (CV)", "F_Federal_Electoral_District__2": "35088", "F_Federal_Electoral_District__3": "Carleton, ON", "F_Dissemination_Area_Code": "35061138", "F_Dissemination_Area_Name": "35061138, ON", "F_Aggregate_Dissemination_Area_": "35060126", "F_Aggregate_Dissemination_Area1": "35060126, ON", "F_Census_Metropolitan_Area_Code": "505", "F_Census_Metropolitan_Area_Name": "Ottawa - Gatineau, ON/QC", "F_Census_Tract_Code": "5050151.09", "F_Census_Tract_Name": "Ottawa - Gatineau (0151.09), ON", "F_Forward_Sortation_Area__Q4__2": "K0A", "F_Forward_Sortation_Area__Q4__3": "K0A (Almonte, ON)", "F_Precision": "Street", "ObjectId": null, "ObjectId2": 18 }, "geometry": { "type": "Point", "coordinates": [ -75.938841, 45.165161 ] } },
{ "type": "Feature", "properties": { "X": -8433956.244000001, "Y": 5675732.309, "Name": "Nepean Centrepointe", "Acronym": "NC", "Street_Address": "101 Centrepointe", "City": "Ottawa", "Province": "ON", "Postal_Code": "K2G 5K7", "F_LATITUDE": 45.343315, "F_LONGITUDE": -75.763518, "F_Canada_Code": 1, "F_Canada_Name": "Canada", "F_Province_Code": "35", "F_Province_Name": "Ontario", "F_Census_Division_Code": "3506", "F_Census_Division_Name": "Ottawa, ON (CDR)", "F_Census_Subdivision_Code": "3506008", "F_Census_Subdivision_Name": "Ottawa, ON (CV)", "F_Federal_Electoral_District__2": "35079", "F_Federal_Electoral_District__3": "Ottawa West--Nepean, ON", "F_Dissemination_Area_Code": "35060488", "F_Dissemination_Area_Name": "35060488, ON", "F_Aggregate_Dissemination_Area_": "35060074", "F_Aggregate_Dissemination_Area1": "35060074, ON", "F_Census_Metropolitan_Area_Code": "505", "F_Census_Metropolitan_Area_Name": "Ottawa - Gatineau, ON/QC", "F_Census_Tract_Code": "5050137.05", "F_Census_Tract_Name": "Ottawa - Gatineau (0137.05), ON", "F_Forward_Sortation_Area__Q4__2": "K2G", "F_Forward_Sortation_Area__Q4__3": "K2G (Ottawa, ON)", "F_Precision": "Street", "ObjectId": null, "ObjectId2": 19 }, "geometry": { "type": "Point", "coordinates": [ -75.763518, 45.343315 ] } },
{ "type": "Feature", "properties": { "X": -8415892.987, "Y": 5690797.532, "Name": "North Gloucester", "Acronym": "NG", "Street_Address": "2036 Ogilvie", "City": "Ottawa", "Province": "ON", "Postal_Code": "K1J 7N8", "F_LATITUDE": 45.438355, "F_LONGITUDE": -75.601253, "F_Canada_Code": 1, "F_Canada_Name": "Canada", "F_Province_Code": "35", "F_Province_Name": "Ontario", "F_Census_Division_Code": "3506", "F_Census_Division_Name": "Ottawa, ON (CDR)", "F_Census_Subdivision_Code": "3506008", "F_Census_Subdivision_Name": "Ottawa, ON (CV)", "F_Federal_Electoral_District__2": "35078", "F_Federal_Electoral_District__3": "Ottawa--Vanier, ON", "F_Dissemination_Area_Code": "35061338", "F_Dissemination_Area_Name": "35061338, ON", "F_Aggregate_Dissemination_Area_": "35060017", "F_Aggregate_Dissemination_Area1": "35060017, ON", "F_Census_Metropolitan_Area_Code": "505", "F_Census_Metropolitan_Area_Name": "Ottawa - Gatineau, ON/QC", "F_Census_Tract_Code": "5050121.02", "F_Census_Tract_Name": "Ottawa - Gatineau (0121.02), ON", "F_Forward_Sortation_Area__Q4__2": "K1J", "F_Forward_Sortation_Area__Q4__3": "K1J (Ottawa, ON)", "F_Precision": "Street", "ObjectId": null, "ObjectId2": 20 }, "geometry": { "type": "Point", "coordinates": [ -75.601253, 45.438355 ] } },
{ "type": "Feature", "properties": { "X": -8428745.602, "Y": 5642277.262, "Name": "North Gower", "Acronym": "GO", "Street_Address": "6579 Fourth Line", "City": "Ottawa", "Province": "ON", "Postal_Code": "K0A 2T0", "F_LATITUDE": 45.13169, "F_LONGITUDE": -75.71671, "F_Canada_Code": 1, "F_Canada_Name": "Canada", "F_Province_Code": "35", "F_Province_Name": "Ontario", "F_Census_Division_Code": "3506", "F_Census_Division_Name": "Ottawa, ON (CDR)", "F_Census_Subdivision_Code": "3506008", "F_Census_Subdivision_Name": "Ottawa, ON (CV)", "F_Federal_Electoral_District__2": "35088", "F_Federal_Electoral_District__3": "Carleton, ON", "F_Dissemination_Area_Code": "35061129", "F_Dissemination_Area_Name": "35061129, ON", "F_Aggregate_Dissemination_Area_": "35060102", "F_Aggregate_Dissemination_Area1": "35060102, ON", "F_Census_Metropolitan_Area_Code": "505", "F_Census_Metropolitan_Area_Name": "Ottawa - Gatineau, ON/QC", "F_Census_Tract_Code": "5050200.02", "F_Census_Tract_Name": "Ottawa - Gatineau (0200.02), ON", "F_Forward_Sortation_Area__Q4__2": "K0A", "F_Forward_Sortation_Area__Q4__3": "K0A (Almonte, ON)", "F_Precision": "Unique ePCCF", "ObjectId": null, "ObjectId2": 21 }, "geometry": { "type": "Point", "coordinates": [ -75.71671, 45.13169 ] } },
{ "type": "Feature", "properties": { "X": -8407498.607000001, "Y": 5693490.986, "Name": "Orleans", "Acronym": "OR", "Street_Address": "1705 Orléans", "City": "Ottawa", "Province": "ON", "Postal_Code": "K1C 4W2", "F_LATITUDE": 45.45533, "F_LONGITUDE": -75.525845, "F_Canada_Code": 1, "F_Canada_Name": "Canada", "F_Province_Code": "35", "F_Province_Name": "Ontario", "F_Census_Division_Code": "3506", "F_Census_Division_Name": "Ottawa, ON (CDR)", "F_Census_Subdivision_Code": "3506008", "F_Census_Subdivision_Name": "Ottawa, ON (CV)", "F_Federal_Electoral_District__2": "35076", "F_Federal_Electoral_District__3": "Orléans, ON", "F_Dissemination_Area_Code": "35060073", "F_Dissemination_Area_Name": "35060073, ON", "F_Aggregate_Dissemination_Area_": "35060107", "F_Aggregate_Dissemination_Area1": "35060107, ON", "F_Census_Metropolitan_Area_Code": "505", "F_Census_Metropolitan_Area_Name": "Ottawa - Gatineau, ON/QC", "F_Census_Tract_Code": "5050125.08", "F_Census_Tract_Name": "Ottawa - Gatineau (0125.08), ON", "F_Forward_Sortation_Area__Q4__2": "K1C", "F_Forward_Sortation_Area__Q4__3": "K1C (Ottawa, ON)", "F_Precision": "Street", "ObjectId": null, "ObjectId2": 22 }, "geometry": { "type": "Point", "coordinates": [ -75.525845, 45.45533 ] } },
{ "type": "Feature", "properties": { "X": -8415049.965, "Y": 5645722.534, "Name": "Osgoode", "Acronym": "OS", "Street_Address": "5630 Osgoode Main", "City": "Ottawa", "Province": "ON", "Postal_Code": "K0A 2W0", "F_LATITUDE": 45.15352, "F_LONGITUDE": -75.59368, "F_Canada_Code": 1, "F_Canada_Name": "Canada", "F_Province_Code": "35", "F_Province_Name": "Ontario", "F_Census_Division_Code": "3506", "F_Census_Division_Name": "Ottawa, ON (CDR)", "F_Census_Subdivision_Code": "3506008", "F_Census_Subdivision_Name": "Ottawa, ON (CV)", "F_Federal_Electoral_District__2": "35088", "F_Federal_Electoral_District__3": "Carleton, ON", "F_Dissemination_Area_Code": "35061473", "F_Dissemination_Area_Name": "35061473, ON", "F_Aggregate_Dissemination_Area_": "35060123", "F_Aggregate_Dissemination_Area1": "35060123, ON", "F_Census_Metropolitan_Area_Code": "505", "F_Census_Metropolitan_Area_Name": "Ottawa - Gatineau, ON/QC", "F_Census_Tract_Code": "5050191.02", "F_Census_Tract_Name": "Ottawa - Gatineau (0191.02), ON", "F_Forward_Sortation_Area__Q4__2": "K0A", "F_Forward_Sortation_Area__Q4__3": "K0A (Almonte, ON)", "F_Precision": "Unique ePCCF", "ObjectId": null, "ObjectId2": 23 }, "geometry": { "type": "Point", "coordinates": [ -75.59368, 45.15352 ] } },
{ "type": "Feature", "properties": { "X": -8441763.303, "Y": 5652929.835, "Name": "Richmond", "Acronym": "RM", "Street_Address": "6240 Perth", "City": "Ottawa", "Province": "ON", "Postal_Code": "K0A 2Z0", "F_LATITUDE": 45.19916, "F_LONGITUDE": -75.83365, "F_Canada_Code": 1, "F_Canada_Name": "Canada", "F_Province_Code": "35", "F_Province_Name": "Ontario", "F_Census_Division_Code": "3506", "F_Census_Division_Name": "Ottawa, ON (CDR)", "F_Census_Subdivision_Code": "3506008", "F_Census_Subdivision_Name": "Ottawa, ON (CV)", "F_Federal_Electoral_District__2": "35088", "F_Federal_Electoral_District__3": "Carleton, ON", "F_Dissemination_Area_Code": "35061148", "F_Dissemination_Area_Name": "35061148, ON", "F_Aggregate_Dissemination_Area_": "35060127", "F_Aggregate_Dissemination_Area1": "35060127, ON", "F_Census_Metropolitan_Area_Code": "505", "F_Census_Metropolitan_Area_Name": "Ottawa - Gatineau, ON/QC", "F_Census_Tract_Code": "5050151.03", "F_Census_Tract_Name": "Ottawa - Gatineau (0151.03), ON", "F_Forward_Sortation_Area__Q4__2": "K0A", "F_Forward_Sortation_Area__Q4__3": "K0A (Almonte, ON)", "F_Precision": "Unique ePCCF", "ObjectId": null, "ObjectId2": 24 }, "geometry": { "type": "Point", "coordinates": [ -75.83365, 45.19916 ] } },
{ "type": "Feature", "properties": { "X": -8425000.369000001, "Y": 5689453.568, "Name": "Rideau", "Acronym": "RI", "Street_Address": "377 Rideau", "City": "Ottawa", "Province": "ON", "Postal_Code": "K1N 5Y6", "F_LATITUDE": 45.429883, "F_LONGITUDE": -75.683066, "F_Canada_Code": 1, "F_Canada_Name": "Canada", "F_Province_Code": "35", "F_Province_Name": "Ontario", "F_Census_Division_Code": "3506", "F_Census_Division_Name": "Ottawa, ON (CDR)", "F_Census_Subdivision_Code": "3506008", "F_Census_Subdivision_Name": "Ottawa, ON (CV)", "F_Federal_Electoral_District__2": "35078", "F_Federal_Electoral_District__3": "Ottawa--Vanier, ON", "F_Dissemination_Area_Code": "35061794", "F_Dissemination_Area_Name": "35061794, ON", "F_Aggregate_Dissemination_Area_": "35060027", "F_Aggregate_Dissemination_Area1": "35060027, ON", "F_Census_Metropolitan_Area_Code": "505", "F_Census_Metropolitan_Area_Name": "Ottawa - Gatineau, ON/QC", "F_Census_Tract_Code": "5050053", "F_Census_Tract_Name": "Ottawa - Gatineau (0053.00), ON", "F_Forward_Sortation_Area__Q4__2": "K1N", "F_Forward_Sortation_Area__Q4__3": "K1N (Ottawa, ON)", "F_Precision": "Street", "ObjectId": null, "ObjectId2": 25 }, "geometry": { "type": "Point", "coordinates": [ -75.683066, 45.429883 ] } },
{ "type": "Feature", "properties": { "X": -8424555.647, "Y": 5692766.252, "Name": "Rockcliffe Park", "Acronym": "RP", "Street_Address": "380 Springfield", "City": "Ottawa", "Province": "ON", "Postal_Code": "K1M 0L7", "F_LATITUDE": 45.450763, "F_LONGITUDE": -75.679071, "F_Canada_Code": 1, "F_Canada_Name": "Canada", "F_Province_Code": "35", "F_Province_Name": "Ontario", "F_Census_Division_Code": "3506", "F_Census_Division_Name": "Ottawa, ON (CDR)", "F_Census_Subdivision_Code": "3506008", "F_Census_Subdivision_Name": "Ottawa, ON (CV)", "F_Federal_Electoral_District__2": "35078", "F_Federal_Electoral_District__3": "Ottawa--Vanier, ON", "F_Dissemination_Area_Code": "35060222", "F_Dissemination_Area_Name": "35060222, ON", "F_Aggregate_Dissemination_Area_": "35060018", "F_Aggregate_Dissemination_Area1": "35060018, ON", "F_Census_Metropolitan_Area_Code": "505", "F_Census_Metropolitan_Area_Name": "Ottawa - Gatineau, ON/QC", "F_Census_Tract_Code": "5050110", "F_Census_Tract_Name": "Ottawa - Gatineau (0110.00), ON", "F_Forward_Sortation_Area__Q4__2": "K1M", "F_Forward_Sortation_Area__Q4__3": "K1M (Ottawa, ON)", "F_Precision": "Street", "ObjectId": null, "ObjectId2": 26 }, "geometry": { "type": "Point", "coordinates": [ -75.679071, 45.450763 ] } },
{ "type": "Feature", "properties": { "X": -8429787.552, "Y": 5684972.923, "Name": "Rosemount", "Acronym": "RO", "Street_Address": "18 Rosemount", "City": "Ottawa", "Province": "ON", "Postal_Code": "K1Y 1P4", "F_LATITUDE": 45.401629, "F_LONGITUDE": -75.72607, "F_Canada_Code": 1, "F_Canada_Name": "Canada", "F_Province_Code": "35", "F_Province_Name": "Ontario", "F_Census_Division_Code": "3506", "F_Census_Division_Name": "Ottawa, ON (CDR)", "F_Census_Subdivision_Code": "3506008", "F_Census_Subdivision_Name": "Ottawa, ON (CV)", "F_Federal_Electoral_District__2": "35075", "F_Federal_Electoral_District__3": "Ottawa Centre, ON", "F_Dissemination_Area_Code": "35060381", "F_Dissemination_Area_Name": "35060381, ON", "F_Aggregate_Dissemination_Area_": "35060139", "F_Aggregate_Dissemination_Area1": "35060139, ON", "F_Census_Metropolitan_Area_Code": "505", "F_Census_Metropolitan_Area_Name": "Ottawa - Gatineau, ON/QC", "F_Census_Tract_Code": "5050043", "F_Census_Tract_Name": "Ottawa - Gatineau (0043.00), ON", "F_Forward_Sortation_Area__Q4__2": "K1Y", "F_Forward_Sortation_Area__Q4__3": "K1Y (Ottawa, ON)", "F_Precision": "Street", "ObjectId": null, "ObjectId2": 27 }, "geometry": { "type": "Point", "coordinates": [ -75.72607, 45.401629 ] } },
{ "type": "Feature", "properties": { "X": -8433656.572000001, "Y": 5665952.84, "Name": "Ruth E. Dickinson", "Acronym": "RD", "Street_Address": "100 Malvern", "City": "Ottawa", "Province": "ON", "Postal_Code": "K2J 2G5", "F_LATITUDE": 45.281535, "F_LONGITUDE": -75.760826, "F_Canada_Code": 1, "F_Canada_Name": "Canada", "F_Province_Code": "35", "F_Province_Name": "Ontario", "F_Census_Division_Code": "3506", "F_Census_Division_Name": "Ottawa, ON (CDR)", "F_Census_Subdivision_Code": "3506008", "F_Census_Subdivision_Name": "Ottawa, ON (CV)", "F_Federal_Electoral_District__2": "35064", "F_Federal_Electoral_District__3": "Nepean, ON", "F_Dissemination_Area_Code": "35061159", "F_Dissemination_Area_Name": "35061159, ON", "F_Aggregate_Dissemination_Area_": "35060114", "F_Aggregate_Dissemination_Area1": "35060114, ON", "F_Census_Metropolitan_Area_Code": "505", "F_Census_Metropolitan_Area_Name": "Ottawa - Gatineau, ON/QC", "F_Census_Tract_Code": "5050140.07", "F_Census_Tract_Name": "Ottawa - Gatineau (0140.07), ON", "F_Forward_Sortation_Area__Q4__2": "K2J", "F_Forward_Sortation_Area__Q4__3": "K2J (Ottawa, ON)", "F_Precision": "Street", "ObjectId": null, "ObjectId2": 28 }, "geometry": { "type": "Point", "coordinates": [ -75.760826, 45.281535 ] } },
{ "type": "Feature", "properties": { "X": -8450871.018, "Y": 5661605.365, "Name": "Stittsville", "Acronym": "ST", "Street_Address": "1637 Stittsville Main", "City": "Ottawa", "Province": "ON", "Postal_Code": "K2S 1A9", "F_LATITUDE": 45.254049, "F_LONGITUDE": -75.915466, "F_Canada_Code": 1, "F_Canada_Name": "Canada", "F_Province_Code": "35", "F_Province_Name": "Ontario", "F_Census_Division_Code": "3506", "F_Census_Division_Name": "Ottawa, ON (CDR)", "F_Census_Subdivision_Code": "3506008", "F_Census_Subdivision_Name": "Ottawa, ON (CV)", "F_Federal_Electoral_District__2": "35088", "F_Federal_Electoral_District__3": "Carleton, ON", "F_Dissemination_Area_Code": "35060696", "F_Dissemination_Area_Name": "35060696, ON", "F_Aggregate_Dissemination_Area_": "35060119", "F_Aggregate_Dissemination_Area1": "35060119, ON", "F_Census_Metropolitan_Area_Code": "505", "F_Census_Metropolitan_Area_Name": "Ottawa - Gatineau, ON/QC", "F_Census_Tract_Code": "5050151.06", "F_Census_Tract_Name": "Ottawa - Gatineau (0151.06), ON", "F_Forward_Sortation_Area__Q4__2": "K2S", "F_Forward_Sortation_Area__Q4__3": "K2S (Ottawa, ON)", "F_Precision": "Street", "ObjectId": null, "ObjectId2": 29 }, "geometry": { "type": "Point", "coordinates": [ -75.915466, 45.254049 ] } },
{ "type": "Feature", "properties": { "X": -8421051.199, "Y": 5690369.986, "Name": "Saint Laurent", "Acronym": "SL", "Street_Address": "515 Côté", "City": "Ottawa", "Province": "ON", "Postal_Code": "K1K 0Z8", "F_LATITUDE": 45.43566, "F_LONGITUDE": -75.64759, "F_Canada_Code": 1, "F_Canada_Name": "Canada", "F_Province_Code": "35", "F_Province_Name": "Ontario", "F_Census_Division_Code": "3506", "F_Census_Division_Name": "Ottawa, ON (CDR)", "F_Census_Subdivision_Code": "3506008", "F_Census_Subdivision_Name": "Ottawa, ON (CV)", "F_Federal_Electoral_District__2": "35078", "F_Federal_Electoral_District__3": "Ottawa--Vanier, ON", "F_Dissemination_Area_Code": "35060186", "F_Dissemination_Area_Name": "35060186, ON", "F_Aggregate_Dissemination_Area_": "35060130", "F_Aggregate_Dissemination_Area1": "35060130, ON", "F_Census_Metropolitan_Area_Code": "505", "F_Census_Metropolitan_Area_Name": "Ottawa - Gatineau, ON/QC", "F_Census_Tract_Code": "5050061", "F_Census_Tract_Name": "Ottawa - Gatineau (0061.00), ON", "F_Forward_Sortation_Area__Q4__2": "K1K", "F_Forward_Sortation_Area__Q4__3": "K1K (Ottawa, ON)", "F_Precision": "Unique ePCCF", "ObjectId": null, "ObjectId2": 30 }, "geometry": { "type": "Point", "coordinates": [ -75.64759, 45.43566 ] } },
{ "type": "Feature", "properties": { "X": -8425103.228, "Y": 5683976.049, "Name": "Sunnyside", "Acronym": "SU", "Street_Address": "1049 Bank", "City": "Ottawa", "Province": "ON", "Postal_Code": "K1S 3W9", "F_LATITUDE": 45.395341, "F_LONGITUDE": -75.68399, "F_Canada_Code": 1, "F_Canada_Name": "Canada", "F_Province_Code": "35", "F_Province_Name": "Ontario", "F_Census_Division_Code": "3506", "F_Census_Division_Name": "Ottawa, ON (CDR)", "F_Census_Subdivision_Code": "3506008", "F_Census_Subdivision_Name": "Ottawa, ON (CV)", "F_Federal_Electoral_District__2": "35075", "F_Federal_Electoral_District__3": "Ottawa Centre, ON", "F_Dissemination_Area_Code": "35061627", "F_Dissemination_Area_Name": "35061627, ON", "F_Aggregate_Dissemination_Area_": "35060043", "F_Aggregate_Dissemination_Area1": "35060043, ON", "F_Census_Metropolitan_Area_Code": "505", "F_Census_Metropolitan_Area_Name": "Ottawa - Gatineau, ON/QC", "F_Census_Tract_Code": "5050016", "F_Census_Tract_Name": "Ottawa - Gatineau (0016.00), ON", "F_Forward_Sortation_Area__Q4__2": "K1S", "F_Forward_Sortation_Area__Q4__3": "K1S (Ottawa, ON)", "F_Precision": "Street", "ObjectId": null, "ObjectId2": 31 }, "geometry": { "type": "Point", "coordinates": [ -75.68399, 45.395341 ] } },
{ "type": "Feature", "properties": { "X": -8422661.992000001, "Y": 5691420.247, "Name": "Vanier", "Acronym": "VA", "Street_Address": "310 Pères Blancs", "City": "Ottawa", "Province": "ON", "Postal_Code": "K1L 7L5", "F_LATITUDE": 45.44228, "F_LONGITUDE": -75.66206, "F_Canada_Code": 1, "F_Canada_Name": "Canada", "F_Province_Code": "35", "F_Province_Name": "Ontario", "F_Census_Division_Code": "3506", "F_Census_Division_Name": "Ottawa, ON (CDR)", "F_Census_Subdivision_Code": "3506008", "F_Census_Subdivision_Name": "Ottawa, ON (CV)", "F_Federal_Electoral_District__2": "35078", "F_Federal_Electoral_District__3": "Ottawa--Vanier, ON", "F_Dissemination_Area_Code": "35060210", "F_Dissemination_Area_Name": "35060210, ON", "F_Aggregate_Dissemination_Area_": "35060131", "F_Aggregate_Dissemination_Area1": "35060131, ON", "F_Census_Metropolitan_Area_Code": "505", "F_Census_Metropolitan_Area_Name": "Ottawa - Gatineau, ON/QC", "F_Census_Tract_Code": "5050103", "F_Census_Tract_Name": "Ottawa - Gatineau (0103.00), ON", "F_Forward_Sortation_Area__Q4__2": "K1L", "F_Forward_Sortation_Area__Q4__3": "K1L (Ottawa, ON)", "F_Precision": "Unique ePCCF", "ObjectId": null, "ObjectId2": 32 }, "geometry": { "type": "Point", "coordinates": [ -75.66206, 45.44228 ] } },
{ "type": "Feature", "properties": { "X": -8400624.072000001, "Y": 5647337.516, "Name": "Vernon", "Acronym": "VE", "Street_Address": "8682 Bank", "City": "Ottawa", "Province": "ON", "Postal_Code": "K0A 3J0", "F_LATITUDE": 45.16375, "F_LONGITUDE": -75.46409, "F_Canada_Code": 1, "F_Canada_Name": "Canada", "F_Province_Code": "35", "F_Province_Name": "Ontario", "F_Census_Division_Code": "3506", "F_Census_Division_Name": "Ottawa, ON (CDR)", "F_Census_Subdivision_Code": "3506008", "F_Census_Subdivision_Name": "Ottawa, ON (CV)", "F_Federal_Electoral_District__2": "35088", "F_Federal_Electoral_District__3": "Carleton, ON", "F_Dissemination_Area_Code": "35061462", "F_Dissemination_Area_Name": "35061462, ON", "F_Aggregate_Dissemination_Area_": "35060123", "F_Aggregate_Dissemination_Area1": "35060123, ON", "F_Census_Metropolitan_Area_Code": "505", "F_Census_Metropolitan_Area_Name": "Ottawa - Gatineau, ON/QC", "F_Census_Tract_Code": "5050190.01", "F_Census_Tract_Name": "Ottawa - Gatineau (0190.01), ON", "F_Forward_Sortation_Area__Q4__2": "K0A", "F_Forward_Sortation_Area__Q4__3": "K0A (Almonte, ON)", "F_Precision": "Unique ePCCF", "ObjectId": null, "ObjectId2": 33 }, "geometry": { "type": "Point", "coordinates": [ -75.46409, 45.16375 ] } },
{ "type": "Feature", "properties": { "X": -8423881.942, "Y": 5676908.368, "Name": "Kiosk / Lockers", "Acronym": "KIOSK", "Street_Address": "3320 Paul Anka Dr.", "City": "Ottawa", "Province": "ON", "Postal_Code": "K1V 0J9", "F_LATITUDE": 45.35074, "F_LONGITUDE": -75.673019, "F_Canada_Code": 1, "F_Canada_Name": "Canada", "F_Province_Code": "35", "F_Province_Name": "Ontario", "F_Census_Division_Code": "3506", "F_Census_Division_Name": "Ottawa, ON (CDR)", "F_Census_Subdivision_Code": "3506008", "F_Census_Subdivision_Name": "Ottawa, ON (CV)", "F_Federal_Electoral_District__2": "35077", "F_Federal_Electoral_District__3": "Ottawa South, ON", "F_Dissemination_Area_Code": "35061249", "F_Dissemination_Area_Name": "35061249, ON", "F_Aggregate_Dissemination_Area_": "35060062", "F_Aggregate_Dissemination_Area1": "35060062, ON", "F_Census_Metropolitan_Area_Code": "505", "F_Census_Metropolitan_Area_Name": "Ottawa - Gatineau, ON/QC", "F_Census_Tract_Code": "5050002.05", "F_Census_Tract_Name": "Ottawa - Gatineau (0002.05), ON", "F_Forward_Sortation_Area__Q4__2": "K1V", "F_Forward_Sortation_Area__Q4__3": "K1V (Ottawa, ON)", "F_Precision": "Street", "ObjectId": null, "ObjectId2": 34 }, "geometry": { "type": "Point", "coordinates": [ -75.673019, 45.35074 ] } }
]
}
